[
  {
    "CCSDS_OMM_VERS": "2.0",
    "COMMENT": "GENERATED VIA SPACE-TRACK.ORG API",
    "CREATION_DATE": "2021-12-03T17:32:05",
    "ORIGINATOR": "18 SPCS",
    "OBJECT_NAME": "ATLAS CENTAUR 2 DEB",
    "OBJECT_ID": "1963-047F",
    "CENTER_NAME": "EARTH",
    "REF_FRAME": "TEME",
    "TIME_SYSTEM": "UTC",
    "MEAN_ELEMENT_THEORY": "SGP4",
    "EPOCH": "2021-12-03T06:49:04.372896",
    "MEAN_MOTION": "13.38634290",
    "ECCENTRICITY": "0.07235530",
    "INCLINATION": "30.4804",
    "RA_OF_ASC_NODE": "321.3972",
    "ARG_OF_PERICENTER": "126.0901",
    "MEAN_ANOMALY": "240.8891",
    "EPHEMERIS_TYPE": "0",
    "CLASSIFICATION_TYPE": "U",
    "NORAD_CAT_ID": "700",
    "ELEMENT_SET_NO": "999",
    "REV_AT_EPOCH": "82791",
    "BSTAR": "0.00001599800000",
    "MEAN_MOTION_DOT": "0.00000100",
    "MEAN_MOTION_DDOT": "0.0000000000000",
    "SEMIMAJOR_AXIS": "7492.508",
    "PERIOD": "107.572",
    "APOAPSIS": "1656.496",
    "PERIAPSIS": "572.250",
    "OBJECT_TYPE": "DEBRIS",
    "RCS_SIZE": "MEDIUM",
    "COUNTRY_CODE": "US",
    "LAUNCH_DATE": "1963-11-27",
    "SITE": "AFETR",
    "DECAY_DATE": null,
    "FILE": "3231740",
    "GP_ID": "190991360",
    "TLE_LINE0": "0 ATLAS CENTAUR 2 DEB",
    "TLE_LINE1": "1 00700U 63047F   21337.28407839  .00000100  00000-0  15998-4 0  9991",
    "TLE_LINE2": "2 00700  30.4804 321.3972 0723553 126.0901 240.8891 13.38634290827917"
  },
  {
    "CCSDS_OMM_VERS": "2.0",
    "COMMENT": "GENERATED VIA SPACE-TRACK.ORG API",
    "CREATION_DATE": "2021-12-03T17:32:05",
    "ORIGINATOR": "18 SPCS",
    "OBJECT_NAME": "ATLAS CENTAUR 2 DEB",
    "OBJECT_ID": "1963-047G",
    "CENTER_NAME": "EARTH",
    "REF_FRAME": "TEME",
    "TIME_SYSTEM": "UTC",
    "MEAN_ELEMENT_THEORY": "SGP4",
    "EPOCH": "2021-12-03T11:35:38.657184",
    "MEAN_MOTION": "13.77178699",
    "ECCENTRICITY": "0.05276800",
    "INCLINATION": "30.0117",
    "RA_OF_ASC_NODE": "261.6811",
    "ARG_OF_PERICENTER": "356.2117",
    "MEAN_ANOMALY": "3.4572",
    "EPHEMERIS_TYPE": "0",
    "CLASSIFICATION_TYPE": "U",
    "NORAD_CAT_ID": "701",
    "ELEMENT_SET_NO": "999",
    "REV_AT_EPOCH": "88121",
    "BSTAR": "0.00015957000000",
    "MEAN_MOTION_DOT": "0.00000527",
    "MEAN_MOTION_DDOT": "0.0000000000000",
    "SEMIMAJOR_AXIS": "7352.048",
    "PERIOD": "104.562",
    "APOAPSIS": "1361.865",
    "PERIAPSIS": "585.960",
    "OBJECT_TYPE": "DEBRIS",
    "RCS_SIZE": "MEDIUM",
    "COUNTRY_CODE": "US",
    "LAUNCH_DATE": "1963-11-27",
    "SITE": "AFETR",
    "DECAY_DATE": null,
    "FILE": "3231740",
    "GP_ID": "190989609",
    "TLE_LINE0": "0 ATLAS CENTAUR 2 DEB",
    "TLE_LINE1": "1 00701U 63047G   21337.48308631  .00000527  00000-0  15957-3 0  9991",
    "TLE_LINE2": "2 00701  30.0117 261.6811 0527680 356.2117   3.4572 13.77178699881219"
  },
  {
    "CCSDS_OMM_VERS": "2.0",
    "COMMENT": "GENERATED VIA SPACE-TRACK.ORG API",
    "CREATION_DATE": "2021-12-03T17:32:05",
    "ORIGINATOR": "18 SPCS",
    "OBJECT_NAME": "WESTFORD NEEDLES",
    "OBJECT_ID": "1963-014H",
    "CENTER_NAME": "EARTH",
    "REF_FRAME": "TEME",
    "TIME_SYSTEM": "UTC",
    "MEAN_ELEMENT_THEORY": "SGP4",
    "EPOCH": "2021-12-03T01:12:51.559200",
    "MEAN_MOTION": "8.65750393",
    "ECCENTRICITY": "0.02550540",
    "INCLINATION": "87.3317",
    "RA_OF_ASC_NODE": "348.5130",
    "ARG_OF_PERICENTER": "287.5354",
    "MEAN_ANOMALY": "69.7785",
    "EPHEMERIS_TYPE": "0",
    "CLASSIFICATION_TYPE": "U",
    "NORAD_CAT_ID": "702",
    "ELEMENT_SET_NO": "999",
    "REV_AT_EPOCH": "85086",
    "BSTAR": "-0.03016300000000",
    "MEAN_MOTION_DOT": "-0.00000065",
    "MEAN_MOTION_DDOT": "0.0000000000000",
    "SEMIMAJOR_AXIS": "10018.592",
    "PERIOD": "166.330",
    "APOAPSIS": "3895.986",
    "PERIAPSIS": "3384.929",
    "OBJECT_TYPE": "DEBRIS",
    "RCS_SIZE": "MEDIUM",
    "COUNTRY_CODE": "US",
    "LAUNCH_DATE": "1963-05-09",
    "SITE": "AFWTR",
    "DECAY_DATE": null,
    "FILE": "3231740",
    "GP_ID": "190989859",
    "TLE_LINE0": "0 WESTFORD NEEDLES",
    "TLE_LINE1": "1 00702U 63014H   21337.05059675 -.00000065  00000-0 -30163-1 0  9993",
    "TLE_LINE2": "2 00702  87.3317 348.5130 0255054 287.5354  69.7785  8.65750393850864"
  },
  {
    "CCSDS_OMM_VERS": "2.0",
    "COMMENT": "GENERATED VIA SPACE-TRACK.ORG API",
    "CREATION_DATE": "2021-12-04T06:36:11",
    "ORIGINATOR": "18 SPCS",
    "OBJECT_NAME": "THOR ABLESTAR R\/B",
    "OBJECT_ID": "1963-049A",
    "CENTER_NAME": "EARTH",
    "REF_FRAME": "TEME",
    "TIME_SYSTEM": "UTC",
    "MEAN_ELEMENT_THEORY": "SGP4",
    "EPOCH": "2021-12-04T02:29:50.947296",
    "MEAN_MOTION": "13.49844766",
    "ECCENTRICITY": "0.00164700",
    "INCLINATION": "89.9087",
    "RA_OF_ASC_NODE": "84.7444",
    "ARG_OF_PERICENTER": "20.7718",
    "MEAN_ANOMALY": "152.7975",
    "EPHEMERIS_TYPE": "0",
    "CLASSIFICATION_TYPE": "U",
    "NORAD_CAT_ID": "703",
    "ELEMENT_SET_NO": "999",
    "REV_AT_EPOCH": "85628",
    "BSTAR": "0.00001859900000",
    "MEAN_MOTION_DOT": "0.00000021",
    "MEAN_MOTION_DDOT": "0.0000000000000",
    "SEMIMAJOR_AXIS": "7450.967",
    "PERIOD": "106.679",
    "APOAPSIS": "1085.103",
    "PERIAPSIS": "1060.560",
    "OBJECT_TYPE": "ROCKET BODY",
    "RCS_SIZE": "LARGE",
    "COUNTRY_CODE": "US",
    "LAUNCH_DATE": "1963-12-05",
    "SITE": "AFWTR",
    "DECAY_DATE": null,
    "FILE": "3232020",
    "GP_ID": "191042687",
    "TLE_LINE0": "0 THOR ABLESTAR R\/B",
    "TLE_LINE1": "1   703U 63049A   21338.10406189  .00000021  00000-0  18599-4 0  9997",
    "TLE_LINE2": "2   703  89.9087  84.7444 0016470  20.7718 152.7975 13.49844766856284"
  },
  {
    "CCSDS_OMM_VERS": "2.0",
    "COMMENT": "GENERATED VIA SPACE-TRACK.ORG API",
    "CREATION_DATE": "2021-12-03T17:32:05",
    "ORIGINATOR": "18 SPCS",
    "OBJECT_NAME": "TRANSIT 5B-2",
    "OBJECT_ID": "1963-049B",
    "CENTER_NAME": "EARTH",
    "REF_FRAME": "TEME",
    "TIME_SYSTEM": "UTC",
    "MEAN_ELEMENT_THEORY": "SGP4",
    "EPOCH": "2021-12-03T13:21:11.094624",
    "MEAN_MOTION": "13.46872914",
    "ECCENTRICITY": "0.00352860",
    "INCLINATION": "89.9071",
    "RA_OF_ASC_NODE": "85.2554",
    "ARG_OF_PERICENTER": "23.8846",
    "MEAN_ANOMALY": "347.5950",
    "EPHEMERIS_TYPE": "0",
    "CLASSIFICATION_TYPE": "U",
    "NORAD_CAT_ID": "704",
    "ELEMENT_SET_NO": "999",
    "REV_AT_EPOCH": "84831",
    "BSTAR": "0.00001627000000",
    "MEAN_MOTION_DOT": "0.00000019",
    "MEAN_MOTION_DDOT": "0.0000000000000",
    "SEMIMAJOR_AXIS": "7461.923",
    "PERIOD": "106.914",
    "APOAPSIS": "1110.118",
    "PERIAPSIS": "1057.458",
    "OBJECT_TYPE": "PAYLOAD",
    "RCS_SIZE": "LARGE",
    "COUNTRY_CODE": "US",
    "LAUNCH_DATE": "1963-12-05",
    "SITE": "AFWTR",
    "DECAY_DATE": null,
    "FILE": "3231740",
    "GP_ID": "190990861",
    "TLE_LINE0": "0 TRANSIT 5B-2",
    "TLE_LINE1": "1 00704U 63049B   21337.55637841  .00000019  00000-0  16270-4 0  9998",
    "TLE_LINE2": "2 00704  89.9071  85.2554 0035286  23.8846 347.5950 13.46872914848313"
  },
  {
    "CCSDS_OMM_VERS": "2.0",
    "COMMENT": "GENERATED VIA SPACE-TRACK.ORG API",
    "CREATION_DATE": "2021-12-03T17:32:05",
    "ORIGINATOR": "18 SPCS",
    "OBJECT_NAME": "TRANSIT 5E 3",
    "OBJECT_ID": "1963-049C",
    "CENTER_NAME": "EARTH",
    "REF_FRAME": "TEME",
    "TIME_SYSTEM": "UTC",
    "MEAN_ELEMENT_THEORY": "SGP4",
    "EPOCH": "2021-12-03T14:31:46.256736",
    "MEAN_MOTION": "13.47370247",
    "ECCENTRICITY": "0.00331650",
    "INCLINATION": "89.9073",
    "RA_OF_ASC_NODE": "85.1932",
    "ARG_OF_PERICENTER": "343.8684",
    "MEAN_ANOMALY": "80.2736",
    "EPHEMERIS_TYPE": "0",
    "CLASSIFICATION_TYPE": "U",
    "NORAD_CAT_ID": "705",
    "ELEMENT_SET_NO": "999",
    "REV_AT_EPOCH": "84902",
    "BSTAR": "0.00003939400000",
    "MEAN_MOTION_DOT": "0.00000033",
    "MEAN_MOTION_DDOT": "0.0000000000000",
    "SEMIMAJOR_AXIS": "7460.087",
    "PERIOD": "106.875",
    "APOAPSIS": "1106.693",
    "PERIAPSIS": "1057.210",
    "OBJECT_TYPE": "PAYLOAD",
    "RCS_SIZE": "LARGE",
    "COUNTRY_CODE": "US",
    "LAUNCH_DATE": "1963-12-05",
    "SITE": "AFWTR",
    "DECAY_DATE": null,
    "FILE": "3231740",
    "GP_ID": "190990109",
    "TLE_LINE0": "0 TRANSIT 5E 3",
    "TLE_LINE1": "1 00705U 63049C   21337.60539649  .00000033  00000-0  39394-4 0  9990",
    "TLE_LINE2": "2 00705  89.9073  85.1932 0033165 343.8684  80.2736 13.47370247849029"
  },
  {
    "CCSDS_OMM_VERS": "2.0",
    "COMMENT": "GENERATED VIA SPACE-TRACK.ORG API",
    "CREATION_DATE": "2021-12-03T17:32:05",
    "ORIGINATOR": "18 SPCS",
    "OBJECT_NAME": "THOR ABLESTAR DEB",
    "OBJECT_ID": "1963-049D",
    "CENTER_NAME": "EARTH",
    "REF_FRAME": "TEME",
    "TIME_SYSTEM": "UTC",
    "MEAN_ELEMENT_THEORY": "SGP4",
    "EPOCH": "2021-12-03T07:27:21.354048",
    "MEAN_MOTION": "13.55468803",
    "ECCENTRICITY": "0.00272230",
    "INCLINATION": "89.9102",
    "RA_OF_ASC_NODE": "88.2714",
    "ARG_OF_PERICENTER": "217.3752",
    "MEAN_ANOMALY": "171.3837",
    "EPHEMERIS_TYPE": "0",
    "CLASSIFICATION_TYPE": "U",
    "NORAD_CAT_ID": "706",
    "ELEMENT_SET_NO": "999",
    "REV_AT_EPOCH": "85877",
    "BSTAR": "0.00017964000000",
    "MEAN_MOTION_DOT": "0.00000134",
    "MEAN_MOTION_DDOT": "0.0000000000000",
    "SEMIMAJOR_AXIS": "7430.342",
    "PERIOD": "106.236",
    "APOAPSIS": "1072.435",
    "PERIAPSIS": "1031.980",
    "OBJECT_TYPE": "DEBRIS",
    "RCS_SIZE": "SMALL",
    "COUNTRY_CODE": "US",
    "LAUNCH_DATE": "1963-12-05",
    "SITE": "AFWTR",
    "DECAY_DATE": null,
    "FILE": "3231740",
    "GP_ID": "190990359",
    "TLE_LINE0": "0 THOR ABLESTAR DEB",
    "TLE_LINE1": "1 00706U 63049D   21337.31066382  .00000134  00000-0  17964-3 0  9998",
    "TLE_LINE2": "2 00706  89.9102  88.2714 0027223 217.3752 171.3837 13.55468803858775"
  }
]
